CCSDS_OMM_VERS = 2.0
CREATION_DATE  = 
ORIGINATOR     = 

OBJECT_NAME    = SL-16 R/B
OBJECT_ID      = 1996-051B
CENTER_NAME    = EARTH
REF_FRAME      = TEME
TIME_SYSTEM    = UTC
MEAN_ELEMENT_THEORY = SGP/SGP4

EPOCH          = 2025-11-19T13:00:48.003264
MEAN_MOTION    = 14.12393782
ECCENTRICITY   = .0018519
INCLINATION    = 70.7609
RA_OF_ASC_NODE = 48.3841
ARG_OF_PERICENTER = 290.3368
MEAN_ANOMALY   = 69.5761

EPHEMERIS_TYPE = 0
CLASSIFICATION_TYPE = U
NORAD_CAT_ID   = 24298
ELEMENT_SET_NO = 999
REV_AT_EPOCH   = 50609
BSTAR          = .11821E-4
MEAN_MOTION_DOT = -.28E-6
MEAN_MOTION_DDOT = 0

CCSDS_OMM_VERS = 2.0
CREATION_DATE  = 
ORIGINATOR     = 

OBJECT_NAME    = ORBVIEW 2 (SEASTAR)
OBJECT_ID      = 1997-037A
CENTER_NAME    = EARTH
REF_FRAME      = TEME
TIME_SYSTEM    = UTC
MEAN_ELEMENT_THEORY = SGP/SGP4

EPOCH          = 2025-11-19T10:10:53.105664
MEAN_MOTION    = 14.35392357
ECCENTRICITY   = .00027751
INCLINATION    = 98.8449
RA_OF_ASC_NODE = 119.9135
ARG_OF_PERICENTER = 45.1400
MEAN_ANOMALY   = 315.0010

EPHEMERIS_TYPE = 0
CLASSIFICATION_TYPE = U
NORAD_CAT_ID   = 24883
ELEMENT_SET_NO = 999
REV_AT_EPOCH   = 49265
BSTAR          = .15862566E-3
MEAN_MOTION_DOT = .409E-5
MEAN_MOTION_DDOT = 0

CCSDS_OMM_VERS = 2.0
CREATION_DATE  = 
ORIGINATOR     = 

OBJECT_NAME    = SL-16 R/B
OBJECT_ID      = 1998-043G
CENTER_NAME    = EARTH
REF_FRAME      = TEME
TIME_SYSTEM    = UTC
MEAN_ELEMENT_THEORY = SGP/SGP4

EPOCH          = 2025-11-19T20:30:28.845792
MEAN_MOTION    = 14.26017548
ECCENTRICITY   = .0009466
INCLINATION    = 98.8087
RA_OF_ASC_NODE = 271.5488
ARG_OF_PERICENTER = 339.1934
MEAN_ANOMALY   = 20.8859

EPHEMERIS_TYPE = 0
CLASSIFICATION_TYPE = U
NORAD_CAT_ID   = 25400
ELEMENT_SET_NO = 999
REV_AT_EPOCH   = 42333
BSTAR          = .60461E-4
MEAN_MOTION_DOT = .99E-6
MEAN_MOTION_DDOT = 0

CCSDS_OMM_VERS = 2.0
CREATION_DATE  = 
ORIGINATOR     = 

OBJECT_NAME    = SL-16 R/B
OBJECT_ID      = 1998-045B
CENTER_NAME    = EARTH
REF_FRAME      = TEME
TIME_SYSTEM    = UTC
MEAN_ELEMENT_THEORY = SGP/SGP4

EPOCH          = 2025-11-19T16:01:02.940960
MEAN_MOTION    = 14.16168596
ECCENTRICITY   = .0008319
INCLINATION    = 71.0123
RA_OF_ASC_NODE = 52.9456
ARG_OF_PERICENTER = 209.2912
MEAN_ANOMALY   = 150.7746

EPHEMERIS_TYPE = 0
CLASSIFICATION_TYPE = U
NORAD_CAT_ID   = 25407
ELEMENT_SET_NO = 999
REV_AT_EPOCH   = 41152
BSTAR          = -.32135E-5
MEAN_MOTION_DOT = -.54E-6
MEAN_MOTION_DDOT = 0

CCSDS_OMM_VERS = 2.0
CREATION_DATE  = 
ORIGINATOR     = 

OBJECT_NAME    = ISS (ZARYA)
OBJECT_ID      = 1998-067A
CENTER_NAME    = EARTH
REF_FRAME      = TEME
TIME_SYSTEM    = UTC
MEAN_ELEMENT_THEORY = SGP/SGP4

EPOCH          = 2025-11-19T07:39:24.985152
MEAN_MOTION    = 15.49817487
ECCENTRICITY   = .00041444
INCLINATION    = 51.6333
RA_OF_ASC_NODE = 258.3957
ARG_OF_PERICENTER = 86.8503
MEAN_ANOMALY   = 273.2960

EPHEMERIS_TYPE = 0
CLASSIFICATION_TYPE = U
NORAD_CAT_ID   = 25544
ELEMENT_SET_NO = 999
REV_AT_EPOCH   = 53922
BSTAR          = .26247255E-3
MEAN_MOTION_DOT = .14458E-3
MEAN_MOTION_DDOT = 0

CCSDS_OMM_VERS = 2.0
CREATION_DATE  = 
ORIGINATOR     = 

OBJECT_NAME    = CZ-4B R/B
OBJECT_ID      = 1999-025C
CENTER_NAME    = EARTH
REF_FRAME      = TEME
TIME_SYSTEM    = UTC
MEAN_ELEMENT_THEORY = SGP/SGP4

EPOCH          = 2025-11-19T13:23:41.759808
MEAN_MOTION    = 14.18235375
ECCENTRICITY   = .0036155
INCLINATION    = 98.6803
RA_OF_ASC_NODE = 5.3528
ARG_OF_PERICENTER = 302.5523
MEAN_ANOMALY   = 219.5088

EPHEMERIS_TYPE = 0
CLASSIFICATION_TYPE = U
NORAD_CAT_ID   = 25732
ELEMENT_SET_NO = 999
REV_AT_EPOCH   = 37255
BSTAR          = .74522E-4
MEAN_MOTION_DOT = .111E-5
MEAN_MOTION_DDOT = 0

CCSDS_OMM_VERS = 2.0
CREATION_DATE  = 
ORIGINATOR     = 

OBJECT_NAME    = OKEAN-O
OBJECT_ID      = 1999-039A
CENTER_NAME    = EARTH
REF_FRAME      = TEME
TIME_SYSTEM    = UTC
MEAN_ELEMENT_THEORY = SGP/SGP4

EPOCH          = 2025-11-19T14:26:40.785216
MEAN_MOTION    = 14.80105500
ECCENTRICITY   = .0001224
INCLINATION    = 97.9637
RA_OF_ASC_NODE = 19.5006
ARG_OF_PERICENTER = 66.7670
MEAN_ANOMALY   = 293.3670

EPHEMERIS_TYPE = 0
CLASSIFICATION_TYPE = U
NORAD_CAT_ID   = 25860
ELEMENT_SET_NO = 999
REV_AT_EPOCH   = 41810
BSTAR          = .12178E-3
MEAN_MOTION_DOT = .871E-5
MEAN_MOTION_DDOT = 0

CCSDS_OMM_VERS = 2.0
CREATION_DATE  = 
ORIGINATOR     = 

OBJECT_NAME    = SL-16 R/B
OBJECT_ID      = 1999-039B
CENTER_NAME    = EARTH
REF_FRAME      = TEME
TIME_SYSTEM    = UTC
MEAN_ELEMENT_THEORY = SGP/SGP4

EPOCH          = 2025-11-19T14:51:42.450048
MEAN_MOTION    = 14.81538576
ECCENTRICITY   = .0013541
INCLINATION    = 98.0160
RA_OF_ASC_NODE = 17.7654
ARG_OF_PERICENTER = 253.0950
MEAN_ANOMALY   = 106.8778

EPHEMERIS_TYPE = 0
CLASSIFICATION_TYPE = U
NORAD_CAT_ID   = 25861
ELEMENT_SET_NO = 999
REV_AT_EPOCH   = 42056
BSTAR          = .10024E-3
MEAN_MOTION_DOT = .733E-5
MEAN_MOTION_DDOT = 0

CCSDS_OMM_VERS = 2.0
CREATION_DATE  = 
ORIGINATOR     = 

OBJECT_NAME    = DELTA 2 R/B
OBJECT_ID      = 1999-041E
CENTER_NAME    = EARTH
REF_FRAME      = TEME
TIME_SYSTEM    = UTC
MEAN_ELEMENT_THEORY = SGP/SGP4

EPOCH          = 2025-11-19T13:22:20.560224
MEAN_MOTION    = 14.11319231
ECCENTRICITY   = .0504882
INCLINATION    = 51.7633
RA_OF_ASC_NODE = 20.9813
ARG_OF_PERICENTER = 23.4520
MEAN_ANOMALY   = 338.8588

EPHEMERIS_TYPE = 0
CLASSIFICATION_TYPE = U
NORAD_CAT_ID   = 25876
ELEMENT_SET_NO = 999
REV_AT_EPOCH   = 34747
BSTAR          = .2476E-3
MEAN_MOTION_DOT = .1293E-4
MEAN_MOTION_DDOT = 0

CCSDS_OMM_VERS = 2.0
CREATION_DATE  = 
ORIGINATOR     = 

OBJECT_NAME    = HELIOS 1B
OBJECT_ID      = 1999-064A
CENTER_NAME    = EARTH
REF_FRAME      = TEME
TIME_SYSTEM    = UTC
MEAN_ELEMENT_THEORY = SGP/SGP4

EPOCH          = 2025-11-19T15:48:44.582112
MEAN_MOTION    = 14.87149004
ECCENTRICITY   = .0002511
INCLINATION    = 98.1756
RA_OF_ASC_NODE = 217.6419
ARG_OF_PERICENTER = 74.0629
MEAN_ANOMALY   = 286.0863

EPHEMERIS_TYPE = 0
CLASSIFICATION_TYPE = U
NORAD_CAT_ID   = 25977
ELEMENT_SET_NO = 999
REV_AT_EPOCH   = 66890
BSTAR          = .276E-3
MEAN_MOTION_DOT = .2423E-4
MEAN_MOTION_DDOT = 0

CCSDS_OMM_VERS = 2.0
CREATION_DATE  = 
ORIGINATOR     = 

OBJECT_NAME    = TERRA
OBJECT_ID      = 1999-068A
CENTER_NAME    = EARTH
REF_FRAME      = TEME
TIME_SYSTEM    = UTC
MEAN_ELEMENT_THEORY = SGP/SGP4

EPOCH          = 2025-11-19T19:17:29.983200
MEAN_MOTION    = 14.60914901
ECCENTRICITY   = .0002832
INCLINATION    = 97.9781
RA_OF_ASC_NODE = 16.3256
ARG_OF_PERICENTER = 145.1451
MEAN_ANOMALY   = 350.0068

EPHEMERIS_TYPE = 0
CLASSIFICATION_TYPE = U
NORAD_CAT_ID   = 25994
ELEMENT_SET_NO = 999
REV_AT_EPOCH   = 37903
BSTAR          = .13008E-3
MEAN_MOTION_DOT = .592E-5
MEAN_MOTION_DDOT = 0

CCSDS_OMM_VERS = 2.0
CREATION_DATE  = 
ORIGINATOR     = 

OBJECT_NAME    = SL-16 R/B
OBJECT_ID      = 2000-006B
CENTER_NAME    = EARTH
REF_FRAME      = TEME
TIME_SYSTEM    = UTC
MEAN_ELEMENT_THEORY = SGP/SGP4

EPOCH          = 2025-11-19T17:23:55.156416
MEAN_MOTION    = 14.15801302
ECCENTRICITY   = .0017271
INCLINATION    = 71.0020
RA_OF_ASC_NODE = 329.0503
ARG_OF_PERICENTER = 340.8767
MEAN_ANOMALY   = 19.1706

EPHEMERIS_TYPE = 0
CLASSIFICATION_TYPE = U
NORAD_CAT_ID   = 26070
ELEMENT_SET_NO = 999
REV_AT_EPOCH   = 33299
BSTAR          = -.5059E-4
MEAN_MOTION_DOT = -.147E-5
MEAN_MOTION_DDOT = 0

